{
  "type": "FeatureCollection",
  "features": [
    {
      "type": "Feature",
      "properties": {
        "norad_id": 34615,
        "name": "COSMOS 2251 DEB",
        "group": "cosmos-2251-debris",
        "lat": -72.68742239445525,
        "lon": -144.11837714606867,
        "alt_km": 1049.3873783001545,
        "timestamp": "2025-12-19T18:58:41.980789+00:00",
        "meta_object_name": "COSMOS 2251 DEB",
        "meta_object_id": "1993-036WL",
        "meta_epoch": "2025-12-18T06:54:04.948992",
        "meta_mean_motion": 13.5220421,
        "meta_eccentricity": 0.04007834,
        "meta_inclination": 74.0049,
        "meta_ra_of_asc_node": 285.2433,
        "meta_arg_of_pericenter": 191.3049,
        "meta_mean_anomaly": 326.0224,
        "meta_ephemeris_type": 0,
        "meta_classification_type": "U",
        "meta_norad_cat_id": 34615,
        "meta_element_set_no": 999,
        "meta_rev_at_epoch": 82890,
        "meta_bstar": 6.5275002e-05,
        "meta_mean_motion_dot": 5e-07,
        "meta_mean_motion_ddot": 0,
        "tle_line1": "1 34615U 93036WL  25352.28755728  .00000050  00000+0  65275-4 0  9994",
        "tle_line2": "2 34615  74.0049 285.2433 0400783 191.3049 326.0224 13.52204210828907"
      },
      "geometry": {
        "type": "Point",
        "coordinates": [
          -144.11837714606867,
          -72.68742239445525
        ]
      }
    },
    {
      "type": "Feature",
      "properties": {
        "norad_id": 34619,
        "name": "COSMOS 2251 DEB",
        "group": "cosmos-2251-debris",
        "lat": 27.455791079479347,
        "lon": -2.159386013788242,
        "alt_km": 717.8137346170752,
        "timestamp": "2025-12-19T18:58:41.980799+00:00",
        "meta_object_name": "COSMOS 2251 DEB",
        "meta_object_id": "1993-036WQ",
        "meta_epoch": "2025-12-19T05:10:01.742880",
        "meta_mean_motion": 14.64660075,
        "meta_eccentricity": 0.00947525,
        "meta_inclination": 74.0434,
        "meta_ra_of_asc_node": 187.4955,
        "meta_arg_of_pericenter": 280.8666,
        "meta_mean_anomaly": 78.185,
        "meta_ephemeris_type": 0,
        "meta_classification_type": "U",
        "meta_norad_cat_id": 34619,
        "meta_element_set_no": 999,
        "meta_rev_at_epoch": 89393,
        "meta_bstar": 0.00014857177,
        "meta_mean_motion_dot": 8.09e-06,
        "meta_mean_motion_ddot": 0,
        "tle_line1": "1 34619U 93036WQ  25353.21529795  .00000809  00000+0  14857-3 0  9996",
        "tle_line2": "2 34619  74.0434 187.4955 0094752 280.8666  78.1850 14.64660075893939"
      },
      "geometry": {
        "type": "Point",
        "coordinates": [
          -2.159386013788242,
          27.455791079479347
        ]
      }
    },
    {
      "type": "Feature",
      "properties": {
        "norad_id": 34620,
        "name": "COSMOS 2251 DEB",
        "group": "cosmos-2251-debris",
        "lat": -2.192555336729537,
        "lon": -154.30644838347544,
        "alt_km": 756.4267584870258,
        "timestamp": "2025-12-19T18:58:41.980809+00:00",
        "meta_object_name": "COSMOS 2251 DEB",
        "meta_object_id": "1993-036WR",
        "meta_epoch": "2025-12-17T15:37:43.675680",
        "meta_mean_motion": 14.49177124,
        "meta_eccentricity": 0.00800634,
        "meta_inclination": 74.051,
        "meta_ra_of_asc_node": 210.3285,
        "meta_arg_of_pericenter": 245.6066,
        "meta_mean_anomaly": 113.6724,
        "meta_ephemeris_type": 0,
        "meta_classification_type": "U",
        "meta_norad_cat_id": 34620,
        "meta_element_set_no": 999,
        "meta_rev_at_epoch": 86898,
        "meta_bstar": 0.001540269,
        "meta_mean_motion_dot": 6.083e-05,
        "meta_mean_motion_ddot": 0,
        "tle_line1": "1 34620U 93036WR  25351.65119995  .00006083  00000+0  15403-2 0  9998",
        "tle_line2": "2 34620  74.0510 210.3285 0080063 245.6066 113.6724 14.49177124868984"
      },
      "geometry": {
        "type": "Point",
        "coordinates": [
          -154.30644838347544,
          -2.192555336729537
        ]
      }
    },
    {
      "type": "Feature",
      "properties": {
        "norad_id": 34622,
        "name": "COSMOS 2251 DEB",
        "group": "cosmos-2251-debris",
        "lat": 26.18325285324019,
        "lon": -57.551444813411315,
        "alt_km": 743.4632818137825,
        "timestamp": "2025-12-19T18:58:41.980819+00:00",
        "meta_object_name": "COSMOS 2251 DEB",
        "meta_object_id": "1993-036WT",
        "meta_epoch": "2025-12-17T21:31:57.246240",
        "meta_mean_motion": 14.22067123,
        "meta_eccentricity": 0.01045787,
        "meta_inclination": 74.0427,
        "meta_ra_of_asc_node": 297.7571,
        "meta_arg_of_pericenter": 18.9913,
        "meta_mean_anomaly": 37.9607,
        "meta_ephemeris_type": 0,
        "meta_classification_type": "U",
        "meta_norad_cat_id": 34622,
        "meta_element_set_no": 999,
        "meta_rev_at_epoch": 86533,
        "meta_bstar": 0.00082135127,
        "meta_mean_motion_dot": 1.896e-05,
        "meta_mean_motion_ddot": 0,
        "tle_line1": "1 34622U 93036WT  25351.89719035  .00001896  00000+0  82135-3 0  9991",
        "tle_line2": "2 34622  74.0427 297.7571 0104578  18.9913  37.9607 14.22067123865332"
      },
      "geometry": {
        "type": "Point",
        "coordinates": [
          -57.551444813411315,
          26.18325285324019
        ]
      }
    },
    {
      "type": "Feature",
      "properties": {
        "norad_id": 34626,
        "name": "COSMOS 2251 DEB",
        "group": "cosmos-2251-debris",
        "lat": 42.239548383062726,
        "lon": -34.76336574458023,
        "alt_km": 631.3277860962853,
        "timestamp": "2025-12-19T18:58:41.980829+00:00",
        "meta_object_name": "COSMOS 2251 DEB",
        "meta_object_id": "1993-036WX",
        "meta_epoch": "2025-12-19T06:15:24.784992",
        "meta_mean_motion": 14.72271515,
        "meta_eccentricity": 0.00268518,
        "meta_inclination": 74.0482,
        "meta_ra_of_asc_node": 311.2138,
        "meta_arg_of_pericenter": 37.4998,
        "meta_mean_anomaly": 78.6485,
        "meta_ephemeris_type": 0,
        "meta_classification_type": "U",
        "meta_norad_cat_id": 34626,
        "meta_element_set_no": 999,
        "meta_rev_at_epoch": 89240,
        "meta_bstar": 0.00072705886,
        "meta_mean_motion_dot": 4.589e-05,
        "meta_mean_motion_ddot": 0,
        "tle_line1": "1 34626U 93036WX  25353.26070353  .00004589  00000+0  72706-3 0  9996",
        "tle_line2": "2 34626  74.0482 311.2138 0026851  37.4998  78.6485 14.72271515892405"
      },
      "geometry": {
        "type": "Point",
        "coordinates": [
          -34.76336574458023,
          42.239548383062726
        ]
      }
    },
    {
      "type": "Feature",
      "properties": {
        "norad_id": 34634,
        "name": "COSMOS 2251 DEB",
        "group": "cosmos-2251-debris",
        "lat": 28.016213061942985,
        "lon": -167.12806649228511,
        "alt_km": 677.1388082516905,
        "timestamp": "2025-12-19T18:58:41.980840+00:00",
        "meta_object_name": "COSMOS 2251 DEB",
        "meta_object_id": "1993-036XF",
        "meta_epoch": "2025-12-19T03:42:30.557376",
        "meta_mean_motion": 14.55675,
        "meta_eccentricity": 0.00438496,
        "meta_inclination": 74.0513,
        "meta_ra_of_asc_node": 22.8278,
        "meta_arg_of_pericenter": 128.2948,
        "meta_mean_anomaly": 289.3386,
        "meta_ephemeris_type": 0,
        "meta_classification_type": "U",
        "meta_norad_cat_id": 34634,
        "meta_element_set_no": 999,
        "meta_rev_at_epoch": 88875,
        "meta_bstar": 0.00021783731,
        "meta_mean_motion_dot": 9.35e-06,
        "meta_mean_motion_ddot": 0,
        "tle_line1": "1 34634U 93036XF  25353.15452034  .00000935  00000+0  21784-3 0  9994",
        "tle_line2": "2 34634  74.0513  22.8278 0043849 128.2948 289.3386 14.55675000888751"
      },
      "geometry": {
        "type": "Point",
        "coordinates": [
          -167.12806649228511,
          28.016213061942985
        ]
      }
    },
    {
      "type": "Feature",
      "properties": {
        "norad_id": 34635,
        "name": "COSMOS 2251 DEB",
        "group": "cosmos-2251-debris",
        "lat": -26.22936889282404,
        "lon": 48.986941670646026,
        "alt_km": 688.9014195999698,
        "timestamp": "2025-12-19T18:58:41.980850+00:00",
        "meta_object_name": "COSMOS 2251 DEB",
        "meta_object_id": "1993-036XG",
        "meta_epoch": "2025-12-19T06:18:43.397856",
        "meta_mean_motion": 14.68344582,
        "meta_eccentricity": 0.00280134,
        "meta_inclination": 74.0459,
        "meta_ra_of_asc_node": 58.109,
        "meta_arg_of_pericenter": 124.6629,
        "meta_mean_anomaly": 299.6199,
        "meta_ephemeris_type": 0,
        "meta_classification_type": "U",
        "meta_norad_cat_id": 34635,
        "meta_element_set_no": 999,
        "meta_rev_at_epoch": 73315,
        "meta_bstar": 0.00070962955,
        "meta_mean_motion_dot": 4.094e-05,
        "meta_mean_motion_ddot": 0,
        "tle_line1": "1 34635U 93036XG  25353.26300229  .00004094  00000+0  70963-3 0  9998",
        "tle_line2": "2 34635  74.0459  58.1090 0028013 124.6629 299.6199 14.68344582733158"
      },
      "geometry": {
        "type": "Point",
        "coordinates": [
          48.986941670646026,
          -26.22936889282404
        ]
      }
    }
  ]
}